{
  "type": "FeatureCollection",
  "features": [
    {
      "type": "Feature",
      "properties": {
        "norad_id": 56564,
        "name": "BEIDOU-3 G4 (C62)",
        "group": "beidou",
        "lat": 0.2754670889216191,
        "lon": 103.4239944981657,
        "alt_km": 35781.89343571487,
        "timestamp": "2025-12-14T14:39:29.636072+00:00",
        "meta_object_name": "BEIDOU-3 G4 (C62)",
        "meta_object_id": "2023-066A",
        "meta_epoch": "2025-12-13T22:46:14.503008",
        "meta_mean_motion": 1.00271707,
        "meta_eccentricity": 0.00028539,
        "meta_inclination": 0.8119,
        "meta_ra_of_asc_node": 302.15,
        "meta_arg_of_pericenter": 230.7553,
        "meta_mean_anomaly": 51.5933,
        "meta_ephemeris_type": 0,
        "meta_classification_type": "U",
        "meta_norad_cat_id": 56564,
        "meta_element_set_no": 999,
        "meta_rev_at_epoch": 953,
        "meta_bstar": 0,
        "meta_mean_motion_dot": -9.4e-07,
        "meta_mean_motion_ddot": 0,
        "tle_line1": "1 56564U 23066A   25347.94877897 -.00000094  00000+0  00000+0 0  9995",
        "tle_line2": "2 56564   0.8119 302.1500 0002853 230.7553  51.5933  1.00271707  9539"
      },
      "geometry": {
        "type": "Point",
        "coordinates": [
          103.4239944981657,
          0.2754670889216191
        ]
      }
    },
    {
      "type": "Feature",
      "properties": {
        "norad_id": 58654,
        "name": "BEIDOU-3 M28 (C50)",
        "group": "beidou",
        "lat": 13.705512529965173,
        "lon": 78.15547326176983,
        "alt_km": 21528.62763859215,
        "timestamp": "2025-12-14T14:39:29.636083+00:00",
        "meta_object_name": "BEIDOU-3 M28 (C50)",
        "meta_object_id": "2023-207A",
        "meta_epoch": "2025-12-11T21:37:33.991968",
        "meta_mean_motion": 1.86229651,
        "meta_eccentricity": 0.00023562,
        "meta_inclination": 55.5838,
        "meta_ra_of_asc_node": 68.6297,
        "meta_arg_of_pericenter": 269.3243,
        "meta_mean_anomaly": 90.6691,
        "meta_ephemeris_type": 0,
        "meta_classification_type": "U",
        "meta_norad_cat_id": 58654,
        "meta_element_set_no": 999,
        "meta_rev_at_epoch": 1335,
        "meta_bstar": 0,
        "meta_mean_motion_dot": -6.9e-07,
        "meta_mean_motion_ddot": 0,
        "tle_line1": "1 58654U 23207A   25345.90108787 -.00000069  00000+0  00000+0 0  9995",
        "tle_line2": "2 58654  55.5838  68.6297 0002356 269.3243  90.6691  1.86229651 13350"
      },
      "geometry": {
        "type": "Point",
        "coordinates": [
          78.15547326176983,
          13.705512529965173
        ]
      }
    },
    {
      "type": "Feature",
      "properties": {
        "norad_id": 58655,
        "name": "BEIDOU-3 M26 (C48)",
        "group": "beidou",
        "lat": 22.52991769030289,
        "lon": -127.96472535028083,
        "alt_km": 21527.840116034105,
        "timestamp": "2025-12-14T14:39:29.636094+00:00",
        "meta_object_name": "BEIDOU-3 M26 (C48)",
        "meta_object_id": "2023-207B",
        "meta_epoch": "2025-12-13T07:25:48.468864",
        "meta_mean_motion": 1.86231261,
        "meta_eccentricity": 0.00038294,
        "meta_inclination": 55.587,
        "meta_ra_of_asc_node": 68.5683,
        "meta_arg_of_pericenter": 255.9601,
        "meta_mean_anomaly": 104.0159,
        "meta_ephemeris_type": 0,
        "meta_classification_type": "U",
        "meta_norad_cat_id": 58655,
        "meta_element_set_no": 999,
        "meta_rev_at_epoch": 1336,
        "meta_bstar": 0,
        "meta_mean_motion_dot": -7.9e-07,
        "meta_mean_motion_ddot": 0,
        "tle_line1": "1 58655U 23207B   25347.30958876 -.00000079  00000+0  00000+0 0  9995",
        "tle_line2": "2 58655  55.5870  68.5683 0003829 255.9601 104.0159  1.86231261 13360"
      },
      "geometry": {
        "type": "Point",
        "coordinates": [
          -127.96472535028083,
          22.52991769030289
        ]
      }
    },
    {
      "type": "Feature",
      "properties": {
        "norad_id": 61186,
        "name": "BEIDOU-3 M25 (C47)",
        "group": "beidou",
        "lat": -54.6327141278533,
        "lon": -142.66063167498106,
        "alt_km": 21520.65689595266,
        "timestamp": "2025-12-14T14:39:29.636105+00:00",
        "meta_object_name": "BEIDOU-3 M25 (C47)",
        "meta_object_id": "2024-168B",
        "meta_epoch": "2025-12-13T09:51:38.613312",
        "meta_mean_motion": 1.86230198,
        "meta_eccentricity": 0.00054273,
        "meta_inclination": 54.6413,
        "meta_ra_of_asc_node": 308.6962,
        "meta_arg_of_pericenter": 297.8799,
        "meta_mean_anomaly": 246.8955,
        "meta_ephemeris_type": 0,
        "meta_classification_type": "U",
        "meta_norad_cat_id": 61186,
        "meta_element_set_no": 999,
        "meta_rev_at_epoch": 832,
        "meta_bstar": 0,
        "meta_mean_motion_dot": -9.7e-07,
        "meta_mean_motion_ddot": 0,
        "tle_line1": "1 61186U 24168B   25347.41086358 -.00000097  00000+0  00000+0 0  9994",
        "tle_line2": "2 61186  54.6413 308.6962 0005427 297.8799 246.8955  1.86230198  8320"
      },
      "geometry": {
        "type": "Point",
        "coordinates": [
          -142.66063167498106,
          -54.6327141278533
        ]
      }
    },
    {
      "type": "Feature",
      "properties": {
        "norad_id": 61187,
        "name": "BEIDOU-3 M27 (C49)",
        "group": "beidou",
        "lat": 34.66914034613218,
        "lon": -21.98243860680993,
        "alt_km": 21521.27702060629,
        "timestamp": "2025-12-14T14:39:29.636116+00:00",
        "meta_object_name": "BEIDOU-3 M27 (C49)",
        "meta_object_id": "2024-168C",
        "meta_epoch": "2025-12-13T04:47:06.571968",
        "meta_mean_motion": 1.86230336,
        "meta_eccentricity": 0.00023989,
        "meta_inclination": 54.6369,
        "meta_ra_of_asc_node": 308.6872,
        "meta_arg_of_pericenter": 337.1666,
        "meta_mean_anomaly": 200.7639,
        "meta_ephemeris_type": 0,
        "meta_classification_type": "U",
        "meta_norad_cat_id": 61187,
        "meta_element_set_no": 999,
        "meta_rev_at_epoch": 579,
        "meta_bstar": 0,
        "meta_mean_motion_dot": -9.6e-07,
        "meta_mean_motion_ddot": 0,
        "tle_line1": "1 61187U 24168C   25347.19938162 -.00000096  00000+0  00000+0 0  9998",
        "tle_line2": "2 61187  54.6369 308.6872 0002398 337.1666 200.7639  1.86230336  5796"
      },
      "geometry": {
        "type": "Point",
        "coordinates": [
          -21.98243860680993,
          34.66914034613218
        ]
      }
    }
  ]
}